ANIK F3                 
1 31102U 07009A   22271.57511135  .00000004  00000+0  00000+0 0  9997
2 31102   0.0154 203.5164 0001743 328.8358 283.3184  1.00270688 56723
ASTRA 1L                
1 31306U 07016A   22271.58105038  .00000124  00000+0  00000+0 0  9996
2 31306   0.0589 349.0453 0003018 245.0881   1.5821  1.00271403 31396
GALAXY 17 (G-17)        
1 31307U 07016B   22271.50257869 -.00000170  00000+0  00000+0 0  9991
2 31307   0.0264 286.1198 0002809 273.3954 257.6870  1.00270592 56467
ZHONGXING-6B            
1 31800U 07031A   22271.56854885 -.00000357  00000+0  00000+0 0  9990
2 31800   0.0117 216.0675 0004386 345.8199 125.6601  1.00271911 55812
DIRECTV 10              
1 31862U 07032A   22271.59513666 -.00000099  00000+0  00000+0 0  9994
2 31862   0.0478 355.8938 0000141 245.3274 237.5919  1.00272093 31986
SPACEWAY 3              
1 32018U 07036A   22271.50257869 -.00000147  00000+0  00000+0 0  9997
2 32018   0.4854  90.4201 0000510  21.5761 341.2589  1.00271432 55519
BSAT-3A                 
1 32019U 07036B   22271.59943684 -.00000346  00000+0  00000+0 0  9995
2 32019   0.0298 213.7692 0003995 358.7386 120.5084  1.00270935 36907
OPTUS D2                
1 32252U 07044A   22271.61197955 -.00000179  00000+0  00000+0 0  9992
2 32252   0.0330 276.8628 0003726 268.1401 194.6862  1.00270845 54957
INTELSAT 11 (IS-11)     
1 32253U 07044B   22271.45565263 -.00000264  00000+0  00000+0 0  9991
2 32253   0.0484  92.1820 0001791 114.9291 281.1667  1.00271049 54880
WGS F1 (USA 195)        
1 32258U 07046A   22271.41091149  .00000046  00000+0  00000+0 0  9998
2 32258   0.0183 197.7922 0000174 357.0987 326.2388  1.00271301 38730
SKYNET 5B               
1 32294U 07056B   22271.60783426  .00000147  00000+0  00000+0 0  9998
2 32294   1.7810  88.4602 0003773  99.6273  63.2126  1.00274092 54580
ASTRA 4A (SIRIUS 4)     
1 32299U 07057A   22271.56993883  .00000037  00000+0  00000+0 0  9997
2 32299   0.0281  74.7063 0002830 113.2532  29.3726  1.00272897 38056
HORIZONS-2              
1 32388U 07063B   22271.24424191 -.00000238  00000+0  00000+0 0  9993
2 32388   0.0311  96.7806 0005426 186.3835  97.9314  1.00160469 54197
THURAYA-3               
1 32404U 08001A   22271.53174774 -.00000296  00000+0  00000+0 0  9990
2 32404   4.1389  24.7719 0001920 151.9737 120.4878  1.00270632 53914
EXPRESS-AM33            
1 32478U 08003A   22271.31857771 -.00000079  00000+0  00000+0 0  9993
2 32478   1.3104  91.5269 0002753 121.7150 258.0062  1.00275746 40123
THOR 5                  
1 32487U 08006A   22271.57549322 -.00000004  00000+0  00000+0 0  9992
2 32487   0.0168 228.4467 0002310 313.5777  31.7442  1.00272507 53691
AMC-14                  
1 32708U 08011A   22271.53936499  .00000084  00000+0  00000+0 0  9992
2 32708  22.2189  36.9134 0033294   5.0233 177.0287  1.00274488 54540
DIRECTV 11              
1 32729U 08013A   22271.59848443 -.00000121  00000+0  00000+0 0  9997
2 32729   0.0053 241.9806 0000176 228.8963  12.7613  1.00270649 31985
ICO G1                  
1 32763U 08016A   22271.44571178 -.00000165  00000+0  00000+0 0  9998
2 32763   4.1214  27.9098 0002311 161.7833 245.1321  1.00272008 52933
VINASAT-1               
1 32767U 08018A   22271.55188156 -.00000324  00000+0  00000+0 0  9993
2 32767   0.0339 295.6740 0002016 269.3133 132.9536  1.00270179 52981
STAR ONE C2             
1 32768U 08018B   22271.52297132 -.00000272  00000+0  00000+0 0  9998
2 32768   0.0663   8.6434 0002626 185.8729 296.0594  1.00272160 53062
AMOS-3                  
1 32794U 08022A   22271.57549322 -.00000030  00000+0  00000+0 0  9990
2 32794   0.0195 132.7030 0002797  23.2122  54.4924  1.00272025 68736
GALAXY 18 (G-18)        
1 32951U 08024A   22271.57010193  .00000029  00000+0  00000+0 0  9993
2 32951   0.0182 163.2512 0002991  23.6117 262.7181  1.00273213 52478
CHINASAT 9 (ZX 9)       
1 33051U 08028A   22271.57966319 -.00000243  00000+0  00000+0 0  9998
2 33051   0.0222 244.1796 0004792 320.9339 103.1180  1.00269412 52426
SKYNET 5C               
1 33055U 08030A   22271.40952080 -.00000134  00000+0  00000+0 0  9996
2 33055   0.2966  82.7319 0003621 100.2960 313.8056  1.00270993 52342
TURKSAT 3A              
1 33056U 08030B   22271.18559718  .00000150  00000+0  00000+0 0  9990
2 33056   0.0419 117.7876 0004739  47.8299 310.1597  1.00270486 38748
INTELSAT 25 (IS-25)     
1 33153U 08034A   22270.88398010 -.00000219  00000+0  00000+0 0  9991
2 33153   0.0090 207.5261 0003010 339.3121 106.5678  1.00272668 52074
BADR-6                  
1 33154U 08034B   22271.60783385  .00000149  00000+0  00000+0 0  9997
2 33154   0.0655  47.7921 0003177 144.1668  60.2228  1.00271468 52143
ECHOSTAR 11             
1 33207U 08035A   22271.58511361 -.00000052  00000+0  00000+0 0  9991
2 33207   0.0209 142.6932 0002695  30.9141 294.3859  1.00271449 37621
SUPERBIRD-C2            
1 33274U 08038A   22271.40249512 -.00000246  00000+0  00000+0 0  9990
2 33274   0.0160 141.0607 0002285  46.1279 108.8364  1.00271860 92111
AMC-21                  
1 33275U 08038B   22271.00884211  .00000040  00000+0  00000+0 0  9999
2 33275   0.0227  78.6888 0002520 117.4519  48.9451  1.00273235 51870
INMARSAT 4-F3           
1 33278U 08039A   22271.36916369 -.00000134  00000+0  00000+0 0  9997
2 33278   3.3403  21.0547 0002892 172.8110 208.1725  1.00273089 32930
NIMIQ 4                 
1 33373U 08044A   22271.49702462 -.00000215  00000+0  00000+0 0  9990
2 33373   0.0247 145.6795 0002164  57.2907 261.2447  1.00267738 51370
GALAXY 19 (G-19)        
1 33376U 08045A   22271.55102715 -.00000134  00000+0  00000+0 0  9996
2 33376   0.0212 181.8060 0003043  11.2090 275.6432  1.00269086 51294
ASTRA 1M                
1 33436U 08057A   22271.58105038  .00000124  00000+0  00000+0 0  9998
2 33436   0.0250 119.6467 0005134  46.7439  69.3134  1.00270929 32111
CIEL-2                  
1 33453U 08063A   22271.56341892  .00000062  00000+0  00000+0 0  9993
2 33453   0.0286 128.4766 0003027  66.7062 246.1407  1.00273057 50519
EUTELSAT HOTBIRD 13C    
1 33459U 08065A   22271.58105038  .00000091  00000+0  00000+0 0  9995
2 33459   0.0576  32.3037 0004781 139.3022  57.9078  1.00271914 33739
EUTELSAT 48D            
1 33460U 08065B   22271.38999479 -.00000095  00000+0  00000+0 0  9990
2 33460   1.7153  91.2565 0003459  90.0132 313.7814  1.00272112 50344
FENGYUN 2E              
1 33463U 08066A   22271.40970207 -.00000196  00000+0  00000+0 0  9997
2 33463   6.1294  64.6742 0000938  40.8229 135.7305  1.00275052 50479
EXPRESS-AM44            
1 33595U 09007A   22271.17504593 -.00000084  00000+0  00000+0 0  9990
2 33595   0.0470 310.0388 0000988 359.5304 109.4087  1.00274248 49948
NSS-9                   
1 33749U 09008A   22271.60014243  .00000076  00000+0  00000+0 0  9998
2 33749   0.0288  59.4015 0001992 125.3400 221.7521  1.00270552 49911
EUTELSAT 33E            
1 33750U 09008B   22271.61471347  .00000160  00000+0  00000+0 0  9997
2 33750   0.0280 352.0060 0003975 187.1262  82.6253  1.00268519 49839
TELSTAR 11N             
1 34111U 09009A   22271.45669904 -.00000246  00000+0  00000+0 0  9996
2 34111   0.0205 175.2365 0002379 355.3338 323.4793  1.00268988 32625
EUTELSAT 10A            
1 34710U 09016A   22271.32267612  .00000073  00000+0  00000+0 0  9992
2 34710   0.0217  30.5001 0005674 168.2142 294.5074  1.00277551 27639
WGS F2 (USA 204)        
1 34713U 09017A   22271.47562153  .00000072  00000+0  00000+0 0  9999
2 34713   0.0191 190.6805 0000210  10.2139  35.0578  1.00270714 32004
SES-7 (PROTOSTAR 2)     
1 34941U 09027A   22271.61148402 -.00000341  00000+0  00000+0 0  9996
2 34941   0.0637  86.9124 0001703 143.3575 105.5213  1.00272370 49000
MEASAT-3A               
1 35362U 09032A   22271.55418904 -.00000238  00000+0  00000+0 0  9995
2 35362   0.0365 222.2786 0003567 346.6715  89.3972  1.00272141 48634
GOES 14                 
1 35491U 09033A   22271.59168696 -.00000089  00000+0  00000+0 0  9997
2 35491   0.3701 267.1619 0017744 306.4828 262.3333  1.00272934 48496
FM-5                    
1 35493U 09034A   22271.50240508 -.00000195  00000+0  00000+0 0  9992
2 35493   0.0199 226.1775 0000513 230.5390   5.2819  1.00270599 33033
TERRESTAR-1             
1 35496U 09035A   22271.58542951 -.00000050  00000+0  00000+0 0  9991
2 35496   3.3446  40.4712 0002627 144.7971 281.8443  1.00271915 48522
ASIASAT 5               
1 35696U 09042A   22271.57410612 -.00000303  00000+0  00000+0 0  9999
2 35696   0.0391 259.3255 0001669 289.8050 125.3813  1.00269339 48074
JCSAT-12 (JCSAT-RA)     
1 35755U 09044A   22271.55188156 -.00000324  00000+0  00000+0 0  9993
2 35755   0.0256 134.1785 0001742 352.8668 211.0083  1.00270018 47994
OPTUS D3                
1 35756U 09044B   22271.51091084 -.00000143  00000+0  00000+0 0  9992
2 35756   0.0157  12.9931 0002395 171.1687 163.0180  1.00270261 47948
NIMIQ 5                 
1 35873U 09050A   22271.49146757 -.00000253  00000+0  00000+0 0  9996
2 35873   0.0184 148.1932 0003135  48.5239 274.7827  1.00271326 47732
AMAZONAS 2              
1 35942U 09054A   22271.45199021 -.00000278  00000+0  00000+0 0  9992
2 35942   0.0257 147.4066 0004869  24.0960 297.4388  1.00269883 47576
COMSATBW-1              
1 35943U 09054B   22271.54852102  .00000028  00000+0  00000+0 0  9991
2 35943   0.0495  96.5860 0003076 104.7183  66.4785  1.00272098 47699
NSS-12                  
1 36032U 09058A   22271.59160709  .00000075  00000+0  00000+0 0  9997
2 36032   0.0278  83.7288 0002725 108.6343  84.9795  1.00272581 47302
THOR 6                  
1 36033U 09058B   22271.57549322 -.00000005  00000+0  00000+0 0  9992
2 36033   0.0137 176.0779 0001749 357.2645  40.3358  1.00271527 47399
INTELSAT 14 (IS-14)     
1 36097U 09064A   22271.45521663 -.00000269  00000+0  00000+0 0  9996
2 36097   0.0216 258.8612 0002551 302.8901 284.3596  1.00270471 46991
